GSAT-17                 
1 42815U 17040B   26162.35637655 -.00000241  00000+0  00000+0 0  9995
2 42815   0.1114  88.0254 0001601 207.2283 186.2546  1.00270654 32730
INTELSAT 35E (IS-35E)   
1 42818U 17041A   26162.90152630 -.00000222  00000+0  00000+0 0  9994
2 42818   0.0017  10.5447 0001551  65.4949 114.2754  1.00270211 32769
COSMOS 2520             
1 42907U 17046A   26161.56271131  .00000154  00000+0  00000+0 0  9990
2 42907   0.0454  86.1390 0001053  55.6369   4.7331  1.00271321 32333
TDRS 13                 
1 42915U 17047A   26162.90608164 -.00000086  00000+0  00000+0 0  9994
2 42915   3.4503   2.5922 0014477 105.9721 106.4336  1.00271563 32290
QZS-3 (MICHIBIKI-3)     
1 42917U 17048A   26162.93346073  .00000000  00000+0  00000+0 0  9993
2 42917   0.0258 186.9640 0002420 263.4602 272.8737  1.00265517 32205
AMAZONAS 5              
1 42934U 17053A   26160.32980735 -.00000266  00000+0  00000+0 0  9993
2 42934   0.0312 323.9850 0002412  64.7103 286.7531  1.00270254 31962
ASIASAT 9               
1 42942U 17057A   26162.29092666  .00000000  00000+0  00000+0 0  9996
2 42942   0.0386  44.0626 0002539  23.3223  59.1383  1.00264399 31801
INTELSAT 37E (IS-37E)   
1 42950U 17059A   26162.90478163 -.00000124  00000+0  00000+0 0  9993
2 42950   0.0168  22.5222 0002407  76.1998 109.2450  1.00272873 32012
BSAT-4A                 
1 42951U 17059B   26160.00712714 -.00000334  00000+0  00000+0 0  9999
2 42951   0.0365   6.7991 0004164  58.5529 304.4340  1.00272912 31712
QZS-4 (MICHIBIKI-4)     
1 42965U 17062A   26162.36373251 -.00000318  00000+0  00000+0 0  9990
2 42965  40.1116 343.5575 0745200 271.6390 272.9173  1.00252284 31749
SES-11 (ECHOSTAR 105)   
1 42967U 17063A   26160.67756544 -.00000072  00000+0  00000+0 0  9992
2 42967   0.0151 352.2876 0002679  98.2971 306.4353  1.00270770 31642
KOREASAT 5A             
1 42984U 17067A   26162.93077405 -.00000342  00000+0  00000+0 0  9998
2 42984   0.0096 321.7140 0000451 141.1191 245.6629  1.00269316 31477
ALCOMSAT 1              
1 43039U 17078A   26162.83215985 -.00000170  00000+0  00000+0 0  9997
2 43039   0.0426  75.9864 0002207   0.1776  98.8002  1.00271762 31247
SBIRS GEO-3 (USA 282)   
1 43162U 18009A   26162.80552755  .00000143  00000+0  00000+0 0  9994
2 43162   2.1803  11.8322 0001909  64.7222 314.1855  1.00271509 30792
AL YAH 3                
1 43174U 18012A   26162.90434830 -.00000140  00000+0  00000+0 0  9993
2 43174   1.5375  83.1689 0003947 357.4999 125.0422  1.00270568 30790
SES-14                  
1 43175U 18012B   26160.47501219 -.00000261  00000+0  00000+0 0  9994
2 43175   0.0220  31.0141 0001057  53.8990 296.4420  1.00270313  6946
GOES 17                 
1 43226U 18022A   26162.89065808 -.00000167  00000+0  00000+0 0  9994
2 43226   0.9230  85.8045 0000462  25.2793  20.2934  1.00270721 30376
HISPASAT 30W-6          
1 43228U 18023A   26160.19333439 -.00000199  00000+0  00000+0 0  9991
2 43228   0.0466  43.0702 0006065  24.4046 229.6971  1.00270107 30322
SUPERBIRD-B3            
1 43271U 18033A   26162.86914375 -.00000076  00000+0  00000+0 0  9994
2 43271   0.0104 314.6491 0001196 154.6060 265.8440  1.00270469 30002
HYLAS 4                 
1 43272U 18033B   26162.68762690 -.00000217  00000+0  00000+0 0  9993
2 43272   0.0185  56.9141 0001164  24.2309  32.9514  1.00269105 30014
IRNSS-1I                
1 43286U 18035A   26162.84780300  .00000079  00000+0  00000+0 0  9991
2 43286  28.7419  74.2800 0017886 181.8135   4.1621  1.00270911 30024
USA 283                 
1 43339U 18036A   26161.43655905  .00000000  00000+0  00000+0 0  9991
2 43339   0.0149 323.1993 0000130 214.6638  12.1871  1.00269147 25223
COSMOS 2526             
1 43432U 18037A   26162.00690613 -.00000327  00000+0  00000+0 0  9998
2 43432   0.0303  76.5937 0000807  95.3826 217.9413  1.00278103 29896
APSTAR-6C               
1 43450U 18041A   26162.86359705 -.00000301  00000+0  00000+0 0  9993
2 43450   0.0238 343.4630 0001085   2.9577 358.6960  1.00271355 29752
BANGABANDHUSAT-1        
1 43463U 18044A   26162.67670735  .00000000  00000+0  00000+0 0  9993
2 43463   0.0190   5.3701 0001681  79.9183 177.4299  1.00267647 29655
SES-12                  
1 43488U 18049A   26162.92976473 -.00000254  00000+0  00000+0 0  9993
2 43488   0.0180  24.7579 0000835 275.1864  30.0523  1.00274082 29368
FENGYUN 2H              
1 43491U 18050A   26162.92410068 -.00000116  00000+0  00000+0 0  9999
2 43491   3.0163  79.1404 0001818 131.0417 102.1944  1.00270423 29388
BEIDOU-2 IGSO-7         
1 43539U 18057A   26162.92990737  .00000035  00000+0  00000+0 0  9994
2 43539  55.1941 163.1041 0104883 237.9036 304.3892  1.00252608 29072
TELSTAR 19V             
1 43562U 18059A   26162.95055387 -.00000264  00000+0  00000+0 0  9993
2 43562   0.0005 117.5915 0002508 357.5497  64.3485  1.00270386 29098
TELKOM 4 (MERAH PUTIH)  
1 43587U 18064A   26162.84767098  .00000000  00000+0  00000+0 0  9990
2 43587   0.0216  11.1867 0001311 107.5880 194.5610  1.00267424 28829
TELSTAR 18V             
1 43611U 18069A   26162.93571407 -.00000278  00000+0  00000+0 0  9998
2 43611   0.0110 302.7247 0001663 137.6448 294.7659  1.00269224 28584
AZERSPACE 2 (IS-38)     
1 43632U 18074A   26162.13310603  .00000154  00000+0  00000+0 0  9990
2 43632   0.0036  69.3548 0001198  12.8510 270.3100  1.00271976 28387
