OBJECT_NAME,OBJECT_ID,EPOCH,MEAN_MOTION,ECCENTRICITY,INCLINATION,RA_OF_ASC_NODE,ARG_OF_PERICENTER,MEAN_ANOMALY,EPHEMERIS_TYPE,CLASSIFICATION_TYPE,NORAD_CAT_ID,ELEMENT_SET_NO,REV_AT_EPOCH,BSTAR,MEAN_MOTION_DOT,MEAN_MOTION_DDOT
GSAT-17,2017-040B,2026-06-11T08:33:10.933920,1.00270654,.0001601,0.1114,88.0254,207.2283,186.2546,0,U,42815,999,3273,0,-.241E-5,0
INTELSAT 35E (IS-35E),2017-041A,2026-06-11T21:38:11.872320,1.00270211,.00015513,0.0017,10.5447,65.4949,114.2754,0,U,42818,999,3276,0,-.222E-5,0
COSMOS 2520,2017-046A,2026-06-10T13:30:18.257184,1.00271321,.00010538,0.0454,86.1390,55.6369,4.7331,0,U,42907,999,3233,0,.154E-5,0
TDRS 13,2017-047A,2026-06-11T21:44:45.453696,1.00271563,.00144779,3.4503,2.5922,105.9721,106.4336,0,U,42915,999,3229,0,-.86E-6,0
QZS-3 (MICHIBIKI-3),2017-048A,2026-06-11T22:24:11.007072,1.00265517,.00024204,0.0258,186.9640,263.4602,272.8737,0,U,42917,999,3220,0,0,0
AMAZONAS 5,2017-053A,2026-06-09T07:54:55.355040,1.00270254,.00024128,0.0312,323.9850,64.7103,286.7531,0,U,42934,999,3196,0,-.266E-5,0
ASIASAT 9,2017-057A,2026-06-11T06:58:56.063424,1.00264399,.0002539,0.0386,44.0626,23.3223,59.1383,0,U,42942,999,3180,0,0,0
INTELSAT 37E (IS-37E),2017-059A,2026-06-11T21:42:53.132832,1.00272873,.00024071,0.0168,22.5222,76.1998,109.2450,0,U,42950,999,3201,0,-.124E-5,0
BSAT-4A,2017-059B,2026-06-09T00:10:15.784896,1.00272912,.0004164,0.0365,6.7991,58.5529,304.4340,0,U,42951,999,3171,0,-.334E-5,0
QZS-4 (MICHIBIKI-4),2017-062A,2026-06-11T08:43:46.488864,1.00252284,.07452,40.1116,343.5575,271.6390,272.9173,0,U,42965,999,3174,0,-.318E-5,0
SES-11 (ECHOSTAR 105),2017-063A,2026-06-09T16:15:41.654016,1.00270770,.00026793,0.0151,352.2876,98.2971,306.4353,0,U,42967,999,3164,0,-.72E-6,0
KOREASAT 5A,2017-067A,2026-06-11T22:20:18.877920,1.00269316,.00004511,0.0096,321.7140,141.1191,245.6629,0,U,42984,999,3147,0,-.342E-5,0
ALCOMSAT 1,2017-078A,2026-06-11T19:58:18.611040,1.00271762,.0002207,0.0426,75.9864,0.1776,98.8002,0,U,43039,999,3124,0,-.17E-5,0
SBIRS GEO-3 (USA 282),2018-009A,2026-06-11T19:19:57.580320,1.00271509,.00019098,2.1803,11.8322,64.7222,314.1855,0,U,43162,999,3079,0,.143E-5,0
AL YAH 3,2018-012A,2026-06-11T21:42:15.693120,1.00270568,.00039473,1.5375,83.1689,357.4999,125.0422,0,U,43174,999,3079,0,-.14E-5,0
SES-14,2018-012B,2026-06-09T11:24:01.053216,1.00270313,.00010572,0.0220,31.0141,53.8990,296.4420,0,U,43175,999,694,0,-.261E-5,0
GOES 17,2018-022A,2026-06-11T21:22:32.858112,1.00270721,.00004629,0.9230,85.8045,25.2793,20.2934,0,U,43226,999,3037,0,-.167E-5,0
HISPASAT 30W-6,2018-023A,2026-06-09T04:38:24.091296,1.00270107,.0006065,0.0466,43.0702,24.4046,229.6971,0,U,43228,999,3032,0,-.199E-5,0
SUPERBIRD-B3,2018-033A,2026-06-11T20:51:34.020000,1.00270469,.00011969,0.0104,314.6491,154.6060,265.8440,0,U,43271,999,3000,0,-.76E-6,0
HYLAS 4,2018-033B,2026-06-11T16:30:10.964160,1.00269105,.00011646,0.0185,56.9141,24.2309,32.9514,0,U,43272,999,3001,0,-.217E-5,0
IRNSS-1I,2018-035A,2026-06-11T20:20:50.179200,1.00270911,.00178861,28.7419,74.2800,181.8135,4.1621,0,U,43286,999,3002,0,.79E-6,0
USA 283,2018-036A,2026-06-10T10:28:38.701920,1.00269147,.000013,0.0149,323.1993,214.6638,12.1871,0,U,43339,999,2522,0,0,0
COSMOS 2526,2018-037A,2026-06-11T00:09:56.689632,1.00278103,.0000807,0.0303,76.5937,95.3826,217.9413,0,U,43432,999,2989,0,-.327E-5,0
APSTAR-6C,2018-041A,2026-06-11T20:43:34.785120,1.00271355,.0001085,0.0238,343.4630,2.9577,358.6960,0,U,43450,999,2975,0,-.301E-5,0
BANGABANDHUSAT-1,2018-044A,2026-06-11T16:14:27.515040,1.00267647,.00016819,0.0190,5.3701,79.9183,177.4299,0,U,43463,999,2965,0,0,0
SES-12,2018-049A,2026-06-11T22:18:51.672672,1.00274082,.00008352,0.0180,24.7579,275.1864,30.0523,0,U,43488,999,2936,0,-.254E-5,0
FENGYUN 2H,2018-050A,2026-06-11T22:10:42.298752,1.00270423,.00018182,3.0163,79.1404,131.0417,102.1944,0,U,43491,999,2938,0,-.116E-5,0
BEIDOU-2 IGSO-7,2018-057A,2026-06-11T22:19:03.996768,1.00252608,.01048835,55.1941,163.1041,237.9036,304.3892,0,U,43539,999,2907,0,.35E-6,0
TELSTAR 19V,2018-059A,2026-06-11T22:48:47.854368,1.00270386,.0002508,0.0005,117.5915,357.5497,64.3485,0,U,43562,999,2909,0,-.264E-5,0
TELKOM 4 (MERAH PUTIH),2018-064A,2026-06-11T20:20:38.772672,1.00267424,.00013111,0.0216,11.1867,107.5880,194.5610,0,U,43587,999,2882,0,0,0
TELSTAR 18V,2018-069A,2026-06-11T22:27:25.695648,1.00269224,.00016637,0.0110,302.7247,137.6448,294.7659,0,U,43611,999,2858,0,-.278E-5,0
AZERSPACE 2 (IS-38),2018-074A,2026-06-11T03:11:40.360992,1.00271976,.00011981,0.0036,69.3548,12.8510,270.3100,0,U,43632,999,2838,0,.154E-5,0
